NORAD_CAT_ID,OBJECT_NAME,OBJECT_TYPE,EPOCH,MEAN_MOTION,ECCENTRICITY,INCLINATION,RA_OF_ASC_NODE,ARG_OF_PERICENTER,MEAN_ANOMALY,BSTAR,MEAN_MOTION_DOT,MEAN_MOTION_DDOT,TLE_LINE0,TLE_LINE1,TLE_LINE2,SEMIMAJOR_AXIS,PERIOD,APOGEE,PERIGEE,DECAYED
55433.0,STARLINK-5570,PAYLOAD,2023-04-30 13:54:31,14.98352224,0.0002344,70.0005,216.9262,267.9358,92.1533,0.00014275,1.612e-05,0.0,0 STARLINK-5570,1 55433U 23014AU  23120.57953252  .00001612  00000-0  14275-3 0  9998,2 55433  70.0005 216.9262 0002344 267.9358  92.1533 14.98352224 14676,6950.124,96.106,573.618,570.36,0.0
55433.0,STARLINK-5570,PAYLOAD,2023-04-30 15:30:39,14.98352947,0.0002337,70.0007,216.7583,266.6276,93.4616,0.00015466,1.754e-05,0.0,0 STARLINK-5570,1 55433U 23014AU  23120.64629080  .00001754  00000-0  15466-3 0  9995,2 55433  70.0007 216.7583 0002337 266.6276  93.4616 14.98352947 13744,6950.122,96.106,573.611,570.363,0.0
55433.0,STARLINK-5570,PAYLOAD,2023-05-01 12:20:26,14.98320478,0.0002596,70.0015,214.5715,235.4516,124.6399,-7.0386e-05,-9.32e-06,0.0,0 STARLINK-5570,1 55433U 23014AU  23121.51419553 -.00000932  00000-0 -70386-4 0  9996,2 55433  70.0015 214.5715 0002596 235.4516 124.6399 14.98320478 13877,6950.222,96.108,573.892,570.283,0.0
55433.0,STARLINK-5570,PAYLOAD,2023-05-01 17:08:51,14.98318718,0.000343,69.9992,214.0632,272.8401,87.2365,-0.00015426,-1.933e-05,0.0,0 STARLINK-5570,1 55433U 23014AU  23121.71448082 -.00001933  00000-0 -15426-3 0  9992,2 55433  69.9992 214.0632 0003430 272.8401  87.2365 14.98318718 14846,6950.228,96.108,574.477,569.709,0.0
55433.0,STARLINK-5570,PAYLOAD,2023-05-02 12:22:27,14.98336627,0.0002991,70.0,212.0464,270.6236,89.4581,-0.00021208,-2.623e-05,0.0,0 STARLINK-5570,1 55433U 23014AU  23122.51559153 -.00002623  00000-0 -21208-3 0  9995,2 55433  70.0000 212.0464 0002991 270.6236  89.4581 14.98336627 14026,6950.172,96.107,574.116,569.959,0.0
55433.0,STARLINK-5570,PAYLOAD,2023-05-02 15:34:42,14.98341802,0.0003142,69.9997,211.7086,268.8558,91.2241,-0.00015136,-1.899e-05,0.0,0 STARLINK-5570,1 55433U 23014AU  23122.64910668 -.00001899  00000-0 -15136-3 0  9998,2 55433  69.9997 211.7086 0003142 268.8558  91.2241 14.98341802 14989,6950.156,96.106,574.205,569.838,0.0
55433.0,STARLINK-5570,PAYLOAD,2023-05-03 04:23:48,14.98317155,0.0003016,70.0005,210.3632,271.6465,88.4348,0.00015096,1.708e-05,0.0,0 STARLINK-5570,1 55433U 23014AU  23123.18319482  .00001708  00000-0  15096-3 0  9997,2 55433  70.0005 210.3632 0003016 271.6465  88.4348 14.98317155 14129,6950.233,96.108,574.194,570.001,0.0
55433.0,STARLINK-5570,PAYLOAD,2023-05-03 14:00:36,14.98313852,0.0003054,70.0005,209.3528,272.4345,87.6464,0.00017428,1.986e-05,0.0,0 STARLINK-5570,1 55433U 23014AU  23123.58375973  .00001986  00000-0  17428-3 0  9997,2 55433  70.0005 209.3528 0003054 272.4345  87.6464 14.98313852 15120,6950.243,96.108,574.23,569.985,0.0
55433.0,STARLINK-5570,PAYLOAD,2023-05-03 15:36:44,14.98316666,0.0002981,70.0006,209.1846,270.5597,89.5221,0.00014135,1.593e-05,0.0,0 STARLINK-5570,1 55433U 23014AU  23123.65051928  .00001593  00000-0  14135-3 0  9992,2 55433  70.0006 209.1846 0002981 270.5597  89.5221 14.98316666 15137,6950.234,96.108,574.171,570.027,0.0
55433.0,STARLINK-5570,PAYLOAD,2023-05-04 10:50:20,14.98337162,0.0003298,69.9998,207.1636,272.0841,87.9941,4.946e-05,4.97e-06,0.0,0 STARLINK-5570,1 55433U 23014AU  23124.45162933  .00000497  00000-0  49460-4 0  9992,2 55433  69.9998 207.1636 0003298 272.0841  87.9941 14.98337162 14314,6950.171,96.107,574.328,569.744,0.0
55433.0,STARLINK-5570,PAYLOAD,2023-05-04 14:02:36,14.98338838,0.0003319,69.9997,206.8268,271.2125,88.8654,6.3387e-05,6.64e-06,0.0,0 STARLINK-5570,1 55433U 23014AU  23124.58514708  .00000664  00000-0  63387-4 0  9997,2 55433  69.9997 206.8268 0003319 271.2125  88.8654 14.98338838 15278,6950.166,96.106,574.337,569.724,0.0
55433.0,STARLINK-5570,PAYLOAD,2023-05-04 15:38:44,14.98339473,0.0003314,69.9997,206.6585,271.1735,88.9044,6.9315e-05,7.34e-06,0.0,0 STARLINK-5570,1 55433U 23014AU  23124.65190616  .00000734  00000-0  69315-4 0  9998,2 55433  69.9997 206.6585 0003314 271.1735  88.9044 14.98339473 15280,6950.164,96.106,574.332,569.725,0.0
55433.0,STARLINK-5570,PAYLOAD,2023-05-05 12:28:30,14.98325662,0.0003261,69.9999,204.4704,271.7404,88.3382,-2.1626e-05,-3.51e-06,0.0,0 STARLINK-5570,1 55433U 23014AU  23125.51979733 -.00000351  00000-0 -21626-4 0  9999,2 55433  69.9999 204.4704 0003261 271.7404  88.3382 14.98325662 14475,6950.206,96.107,574.338,569.805,0.0
55433.0,STARLINK-5570,PAYLOAD,2023-05-05 15:40:46,14.98326816,0.0003255,70.0,204.1338,271.8685,88.2101,-9.5562e-06,-2.07e-06,0.0,0 STARLINK-5570,1 55433U 23014AU  23125.65331645 -.00000207  00000-0 -95562-5 0  9999,2 55433  70.0000 204.1338 0003255 271.8685  88.2101 14.98326816 15433,6950.203,96.107,574.33,569.805,0.0
55433.0,STARLINK-5570,PAYLOAD,2023-05-06 14:06:38,14.98336277,0.0003232,70.0001,201.7776,270.3725,89.7064,-3.2721e-05,-4.84e-06,0.0,0 STARLINK-5570,1 55433U 23014AU  23126.58795008 -.00000484  00000-0 -32721-4 0  9993,2 55433  70.0001 201.7776 0003232 270.3725  89.7064 14.98336277 15578,6950.173,96.107,574.285,569.792,0.0
55433.0,STARLINK-5570,PAYLOAD,2023-05-06 22:07:19,14.9833141,0.0003231,70.0002,200.9353,273.34,86.7389,-7.9237e-06,-1.88e-06,0.0,0 STARLINK-5570,1 55433U 23014AU  23126.92175187 -.00000188  00000-0 -79237-5 0  9996,2 55433  70.0002 200.9353 0003231 273.3400  86.7389 14.98331410 14685,6950.189,96.107,574.299,569.808,0.0
55433.0,STARLINK-5570,PAYLOAD,2023-05-07 04:31:52,14.98321139,0.0003132,70.0004,200.2626,273.9449,86.1352,-2.2081e-05,-3.56e-06,0.0,0 STARLINK-5570,1 55433U 23014AU  23127.18879936 -.00000356  00000-0 -22081-4 0  9999,2 55433  70.0004 200.2626 0003132 273.9449  86.1352 14.98321139 14728,6950.22,96.108,574.262,569.908,0.0
55433.0,STARLINK-5570,PAYLOAD,2023-05-07 12:32:32,14.98320632,0.0003171,70.0001,199.4212,273.1715,86.9081,-3.1799e-05,-4.72e-06,0.0,0 STARLINK-5570,1 55433U 23014AU  23127.52260151 -.00000472  00000-0 -31799-4 0  9995,2 55433  70.0001 199.4212 0003171 273.1715  86.9081 14.98320632 15710,6950.222,96.108,574.291,569.883,0.0
55433.0,STARLINK-5570,PAYLOAD,2023-05-07 14:08:40,14.9832158,0.0003159,70.0002,199.2529,273.2221,86.8577,-2.0569e-05,-3.38e-06,0.0,0 STARLINK-5570,1 55433U 23014AU  23127.58936089 -.00000338  00000-0 -20569-4 0  9995,2 55433  70.0002 199.2529 0003159 273.2221  86.8577 14.98321580 15722,6950.219,96.108,574.28,569.888,0.0
55433.0,STARLINK-5570,PAYLOAD,2023-05-08 10:58:24,14.98333797,0.0003271,69.9999,197.0659,272.4216,87.6568,2.5369e-05,2.1e-06,0.0,0 STARLINK-5570,1 55433U 23014AU  23128.45723328  .00000210  00000-0  25369-4 0  9992,2 55433  69.9999 197.0659 0003271 272.4216  87.6568 14.98333797 14916,6950.181,96.107,574.32,569.773,0.0
55433.0,STARLINK-5570,PAYLOAD,2023-05-08 12:34:33,14.98332992,0.0003307,69.9998,196.8977,272.3165,87.7615,1.2934e-05,6.1e-07,0.0,0 STARLINK-5570,1 55433U 23014AU  23128.52399395  .00000061  00000-0  12934-4 0  9991,2 55433  69.9998 196.8977 0003307 272.3165  87.7615 14.98332992 15862,6950.184,96.107,574.347,569.75,0.0
55433.0,STARLINK-5570,PAYLOAD,2023-05-09 14:12:41,14.98333118,0.000343,69.9993,194.2033,271.1419,88.9347,0.00011158,1.239e-05,0.0,0 STARLINK-5570,1 55433U 23014AU  23129.59214960  .00001239  00000-0  11158-3 0  9997,2 55433  69.9993 194.2033 0003430 271.1419  88.9347 14.98333118 16023,6950.183,96.107,574.432,569.664,0.0
55433.0,STARLINK-5570,PAYLOAD,2023-05-10 12:38:34,14.98332466,0.0003185,70.0,191.8478,269.9592,90.1202,-1.6761e-05,-2.93e-06,0.0,0 STARLINK-5570,1 55433U 23014AU  23130.52679339 -.00000293  00000-0 -16761-4 0  9994,2 55433  70.0000 191.8478 0003185 269.9592  90.1202 14.98332466 16160,6950.185,96.107,574.264,569.837,0.0
55433.0,STARLINK-5570,PAYLOAD,2023-05-10 14:14:42,14.98332611,0.0003189,70.0,191.6795,270.0319,90.0474,-1.522e-05,-2.75e-06,0.0,0 STARLINK-5570,1 55433U 23014AU  23130.59355312 -.00000275  00000-0 -15220-4 0  9992,2 55433  70.0000 191.6795 0003189 270.0319  90.0474 14.98332611 15233,6950.185,96.107,574.266,569.833,0.0
55433.0,STARLINK-5570,PAYLOAD,2023-05-11 11:04:27,14.98334274,0.0003077,70.0001,189.492,266.1216,93.9591,-5.9502e-06,-1.64e-06,0.0,0 STARLINK-5570,1 55433U 23014AU  23131.46142934 -.00000164  00000-0 -59502-5 0  9992,2 55433  70.0001 189.4920 0003077 266.1216  93.9591 14.98334274 16305,6950.18,96.107,574.183,569.906,0.0
55433.0,STARLINK-5570,PAYLOAD,2023-05-11 14:16:43,14.98334265,0.00031,69.9999,189.1548,267.0713,93.0091,-6.1863e-06,-1.67e-06,0.0,0 STARLINK-5570,1 55433U 23014AU  23131.59494904 -.00000167  00000-0 -61863-5 0  9999,2 55433  69.9999 189.1548 0003100 267.0713  93.0091 14.98334265 15383,6950.18,96.107,574.199,569.89,0.0
55433.0,STARLINK-5570,PAYLOAD,2023-05-11 20:41:16,14.98328898,0.000314,69.9999,188.4807,271.7567,88.3232,-2.2716e-05,-3.64e-06,0.0,0 STARLINK-5570,1 55433U 23014AU  23131.86199265 -.00000364  00000-0 -22716-4 0  9993,2 55433  69.9999 188.4807 0003140 271.7567  88.3232 14.98328898 16364,6950.196,96.107,574.244,569.879,0.0
55433.0,STARLINK-5570,PAYLOAD,2023-05-12 04:41:56,14.98328468,0.0003187,69.9995,187.639,271.3359,88.7435,-1.2438e-05,-2.41e-06,0.0,0 STARLINK-5570,1 55433U 23014AU  23132.19579264 -.00000241  00000-0 -12438-4 0  9995,2 55433  69.9995 187.6390 0003187 271.3359  88.7435 14.98328468 16412,6950.198,96.107,574.278,569.848,0.0
55433.0,STARLINK-5570,PAYLOAD,2023-05-12 07:54:12,14.98328039,0.0003207,69.9995,187.3025,270.8614,89.2178,-1.881e-05,-3.17e-06,0.0,0 STARLINK-5570,1 55433U 23014AU  23132.32931309 -.00000317  00000-0 -18810-4 0  9996,2 55433  69.9995 187.3025 0003207 270.8614  89.2178 14.98328039 15496,6950.199,96.107,574.293,569.835,0.0
55433.0,STARLINK-5570,PAYLOAD,2023-05-13 12:44:37,14.98332947,0.0003192,69.9994,184.2731,268.4262,91.6532,2.7499e-06,-6e-07,0.0,0 STARLINK-5570,1 55433U 23014AU  23133.53098841 -.00000060  00000-0  27499-5 0  9993,2 55433  69.9994 184.2731 0003192 268.4262  91.6532 14.98332947 15674,6950.184,96.107,574.267,569.83,0.0
